*******************************************************************************
 Revised: Jul 31, 2013           Saturn Barycenter                            6
 
 Dynamical point:
 ---------------
 The location of the center-of-mass of the Saturn system. The point about which
 Saturn and its satellites revolve. See 699 for Saturn center.
*******************************************************************************
 
 
*******************************************************************************
Ephemeris / WWW_USER Mon Jan 15 15:22:16 2018 Pasadena, USA      / Horizons    
*******************************************************************************
Target body name: Saturn Barycenter (6)           {source: DE431mx}
Center body name: Solar System Barycenter (0)     {source: DE431mx}
Center-site name: BODY CENTER
*******************************************************************************
Start time      : A.D. 1950-Jan-05 00:00:00.0000 TDB
Stop  time      : A.D. 2018-Jan-25 00:00:00.0000 TDB
Step-size       : 10080 minutes
*******************************************************************************
Center geodetic : 0.00000000,0.00000000,0.0000000 {E-lon(deg),Lat(deg),Alt(km)}
Center cylindric: 0.00000000,0.00000000,0.0000000 {E-lon(deg),Dxy(km),Dz(km)}
Center radii    : (undefined)                                                  
Output units    : AU-D                                                         
Output type     : GEOMETRIC cartesian states
Output format   : 3 (position, velocity, LT, range, range-rate)
Reference frame : ICRF/J2000.0                                                 
Coordinate systm: Ecliptic and Mean Equinox of Reference Epoch                 
*******************************************************************************
JDTDB
   X     Y     Z
   VX    VY    VZ
   LT    RG    RR
*******************************************************************************
$$SOE
2449918.500000000 = A.D. 1995-Jul-20 00:00:00.0000 TDB 
 X = 9.456473709088952E+00 Y =-1.740493041261656E+00 Z =-3.456313544977858E-01
 VX= 7.091278501760396E-04 VY= 5.475173779414619E-03 VZ=-1.236281509150167E-04
 LT= 5.556927262772268E-02 RG= 9.621521297101761E+00 RR=-2.890315512558088E-04
2449925.500000000 = A.D. 1995-Jul-27 00:00:00.0000 TDB 
 X = 9.461360622072190E+00 Y =-1.702152731606354E+00 Z =-3.464939363683608E-01
 VX= 6.871287954375643E-04 VY= 5.479185960654402E-03 VZ=-1.228233932915218E-04
 LT= 5.555758254081183E-02 RG= 9.619497221297653E+00 RR=-2.892750418682619E-04
2449932.500000000 = A.D. 1995-Aug-03 00:00:00.0000 TDB 
 X = 9.466093453704556E+00 Y =-1.663784640275439E+00 Z =-3.473508761517949E-01
 VX= 6.651046605190002E-04 VY= 5.483111372093142E-03 VZ=-1.220161276393493E-04
 LT= 5.554588270450930E-02 RG= 9.617471457438704E+00 RR=-2.895138511533687E-04
2449939.500000000 = A.D. 1995-Aug-10 00:00:00.0000 TDB 
 X = 9.470672029548755E+00 Y =-1.625389375263815E+00 Z =-3.482021563260217E-01
 VX= 6.430557667713228E-04 VY= 5.486949840663937E-03 VZ=-1.212063637223880E-04
 LT= 5.553417330825498E-02 RG= 9.615444038325412E+00 RR=-2.897479701931779E-04
2449946.500000000 = A.D. 1995-Aug-17 00:00:00.0000 TDB 
 X = 9.475096177421488E+00 Y =-1.586967545774500E+00 Z =-3.490477594375601E-01
 VX= 6.209824368387766E-04 VY= 5.490701194257002E-03 VZ=-1.203941113726972E-04
 LT= 5.552245454184931E-02 RG= 9.613414996820703E+00 RR=-2.899773900733491E-04
2449953.500000000 = A.D. 1995-Aug-24 00:00:00.0000 TDB 
 X = 9.479365727402453E+00 Y =-1.548519762211926E+00 Z =-3.498876681019920E-01
 VX= 5.988849946437710E-04 VY= 5.494365261721237E-03 VZ=-1.195793804905624E-04
 LT= 5.551072659545275E-02 RG= 9.611384365849853E+00 RR=-2.902021018971828E-04
2449960.500000000 = A.D. 1995-Aug-31 00:00:00.0000 TDB 
 X = 9.483480511843231E+00 Y =-1.510046636175219E+00 Z =-3.507218650044401E-01
 VX= 5.767637653743872E-04 VY= 5.497941872867800E-03 VZ=-1.187621810444045E-04
 LT= 5.549898965958496E-02 RG= 9.609352178400302E+00 RR=-2.904220967976098E-04
2449967.500000000 = A.D. 1995-Sep-07 00:00:00.0000 TDB 
 X = 9.487440365376122E+00 Y =-1.471548780451443E+00 Z =-3.515503329000428E-01
 VX= 5.546190754727403E-04 VY= 5.501430858475519E-03 VZ=-1.179425230702031E-04
 LT= 5.548724392512323E-02 RG= 9.607318467521436E+00 RR=-2.906373659487826E-04
2449974.500000000 = A.D. 1995-Sep-14 00:00:00.0000 TDB 
 X = 9.491245124922871E+00 Y =-1.433026809008805E+00 Z =-3.523730546144259E-01
 VX= 5.324512526218702E-04 VY= 5.504832050297540E-03 VZ=-1.171204166709846E-04
 LT= 5.547548958330065E-02 RG= 9.605283266324239E+00 RR=-2.908479005793962E-04
2449981.500000000 = A.D. 1995-Sep-21 00:00:00.0000 TDB 
 X = 9.494894629703309E+00 Y =-1.394481336989803E+00 Z =-3.531900130441683E-01
 VX= 5.102606257313699E-04 VY= 5.508145281070334E-03 VZ=-1.162958720160915E-04
 LT= 5.546372682570355E-02 RG= 9.603246607980852E+00 RR=-2.910536919876658E-04
2449988.500000000 = A.D. 1995-Sep-28 00:00:00.0000 TDB 
 X = 9.498388721243881E+00 Y =-1.355912980704312E+00 Z =-3.540011911572647E-01
 VX= 4.880475249249317E-04 VY= 5.511370384522936E-03 VZ=-1.154688993406598E-04
 LT= 5.545195584426842E-02 RG= 9.601208525724051E+00 RR=-2.912547315544225E-04
2449995.500000000 = A.D. 1995-Oct-05 00:00:00.0000 TDB 
 X = 9.501727243386116E+00 Y =-1.317322357622601E+00 Z =-3.548065719935856E-01
 VX= 4.658122815252948E-04 VY= 5.514507195387010E-03 VZ=-1.146395089451965E-04
 LT= 5.544017683127830E-02 RG= 9.599169052846610E+00 RR=-2.914510107588694E-04
2450002.500000000 = A.D. 1995-Oct-12 00:00:00.0000 TDB 
 X = 9.504910042294926E+00 Y =-1.278710086368271E+00 Z =-3.556061386653330E-01
 VX= 4.435552280323267E-04 VY= 5.517555549409612E-03 VZ=-1.138077111956237E-04
 LT= 5.542838997935835E-02 RG= 9.597128222700546E+00 RR=-2.916425212014322E-04
2450009.500000000 = A.D. 1995-Oct-19 00:00:00.0000 TDB 
 X = 9.507936966466788E+00 Y =-1.240076786711081E+00 Z =-3.563998743574981E-01
 VX= 4.212766981007697E-04 VY= 5.520515283376388E-03 VZ=-1.129735165226535E-04
 LT= 5.541659548147048E-02 RG= 9.595086068696174E+00 RR=-2.918292546281995E-04
2450016.500000000 = A.D. 1995-Oct-26 00:00:00.0000 TDB 
 X = 9.510807866737759E+00 Y =-1.201423079559543E+00 Z =-3.571877623283110E-01
 VX= 3.989770265321409E-04 VY= 5.523386235147970E-03 VZ=-1.121369354207487E-04
 LT= 5.540479353090702E-02 RG= 9.593042624301024E+00 RR=-2.920112029425653E-04
2450023.500000000 = A.D. 1995-Nov-02 00:00:00.0000 TDB 
 X = 9.513522596291606E+00 Y =-1.162749586953322E+00 Z =-3.579697859096840E-01
 VX= 3.766565493033756E-04 VY= 5.526168243679362E-03 VZ=-1.112979784476014E-04
 LT= 5.539298432128496E-02 RG= 9.590997923038840E+00 RR=-2.921883581775267E-04
2450030.500000000 = A.D. 1995-Nov-09 00:00:00.0000 TDB 
 X = 9.516081010668087E+00 Y =-1.124056932055543E+00 Z =-3.587459285076573E-01
 VX= 3.543156035774745E-04 VY= 5.528861149028671E-03 VZ=-1.104566562251056E-04
 LT= 5.538116804654097E-02 RG= 9.588951998488714E+00 RR=-2.923607124840920E-04
2450037.500000000 = A.D. 1995-Nov-16 00:00:00.0000 TDB 
 X = 9.518482967771263E+00 Y =-1.085345739145032E+00 Z =-3.595161736028520E-01
 VX= 3.319545277076440E-04 VY= 5.531464792368124E-03 VZ=-1.096129794403875E-04
 LT= 5.536934490092675E-02 RG= 9.586904884284287E+00 RR=-2.925282581262918E-04
2450044.500000000 = A.D. 1995-Nov-23 00:00:00.0000 TDB 
 X = 9.520728327877851E+00 Y =-1.046616633608459E+00 Z =-3.602805047509289E-01
 VX= 3.095736612457652E-04 VY= 5.533979016001525E-03 VZ=-1.087669588462262E-04
 LT= 5.535751507900462E-02 RG= 9.584856614112976E+00 RR=-2.926909874724539E-04
2450051.500000000 = A.D. 1995-Nov-30 00:00:00.0000 TDB 
 X = 9.522816953645686E+00 Y =-1.007870241932374E+00 Z =-3.610389055830495E-01
 VX= 2.871733449603259E-04 VY= 5.536403663374703E-03 VZ=-1.079186052615791E-04
 LT= 5.534567877564360E-02 RG= 9.582807221715312E+00 RR=-2.928488929759972E-04
2450058.500000000 = A.D. 1995-Dec-07 00:00:00.0000 TDB 
 X = 9.524748710122287E+00 Y =-9.691071916951920E-01 Z =-3.617913598063416E-01
 VX= 2.647539208555916E-04 VY= 5.538738579080750E-03 VZ=-1.070679295722592E-04
 LT= 5.533383618601646E-02 RG= 9.580756740884409E+00 RR=-2.930019671543105E-04
2450065.500000000 = A.D. 1995-Dec-14 00:00:00.0000 TDB 
 X = 9.526523464753582E+00 Y =-9.303281115591636E-01 Z =-3.625378512043690E-01
 VX= 2.423157321867751E-04 VY= 5.540983608859158E-03 VZ=-1.062149427314499E-04
 LT= 5.532198750559750E-02 RG= 9.578705205465596E+00 RR=-2.931502025710182E-04
2450072.500000000 = A.D. 1995-Dec-21 00:00:00.0000 TDB 
 X = 9.528141087392692E+00 Y =-8.915336312623642E-01 Z =-3.632783636376061E-01
 VX= 2.198591234701922E-04 VY= 5.543138599589916E-03 VZ=-1.053596557604030E-04
 LT= 5.531013293016101E-02 RG= 9.576652649356134E+00 RR=-2.932935918229502E-04
2450079.500000000 = A.D. 1995-Dec-28 00:00:00.0000 TDB 
 X = 9.529601450308766E+00 Y =-8.527243816107353E-01 Z =-3.640128810439147E-01
 VX= 1.973844404816444E-04 VY= 5.545203399287719E-03 VZ=-1.045020797488134E-04
 LT= 5.529827265577986E-02 RG= 9.574599106504994E+00 RR=-2.934321275391973E-04
2450086.500000000 = A.D. 1996-Jan-04 00:00:00.0000 TDB 
 X = 9.530904428195759E+00 Y =-8.139009944701794E-01 Z =-3.647413874390270E-01
 VX= 1.748920302441641E-04 VY= 5.547177857090293E-03 VZ=-1.036422258556467E-04
 LT= 5.528640687882420E-02 RG= 9.572544610912610E+00 RR=-2.935658023906278E-04
2450093.500000000 = A.D. 1996-Jan-11 00:00:00.0000 TDB 
 X = 9.532049898181066E+00 Y =-7.750641027586975E-01 Z =-3.654638669170308E-01
 VX= 1.523822409955914E-04 VY= 5.549061823262403E-03 VZ=-1.027801053092427E-04
 LT= 5.527453579595908E-02 RG= 9.570489196630483E+00 RR=-2.936946091213331E-04
2450100.500000000 = A.D. 1996-Jan-18 00:00:00.0000 TDB 
 X = 9.533037739833890E+00 Y =-7.362143404384526E-01 Z =-3.661803036508538E-01
 VX= 1.298554221531834E-04 VY= 5.550855149211278E-03 VZ=-1.019157294067797E-04
 LT= 5.526265960414084E-02 RG= 9.568432897760546E+00 RR=-2.938185405840731E-04
